#dP2024  3  8  0  0  0.00000000      96 __u+U IGS20 EXT  IAC
## 2304 432000.00000000   900.00000000 60377 0.0000000000000
+  118   C06C07C08C09C10C11C12C13C14C16C19C20C21C22C23C24C25
+        C26C27C28C29C30C32C33C34C35C36C37C38C39C40C41C42C43
+        C44C45C46E02E03E04E05E07E08E09E10E11E12E13E14E15E18
+        E19E21E24E25E26E27E30E31E33E34E36G01G02G03G04G05G06
+        G07G08G09G10G11G12G13G14G15G16G17G18G19G20G21G22G23
+        G24G25G26G27G28G29G30G31G32J02J03J04R01R02R03R04R05
+        R07R08R09R11R12R13R14R15R16R17R18R19R20R21R22R24  0
++        10 11 11  9  9  9  8 10  7  9  6  9  8  9  8  9  8
++         7  7  8  9  9  8  8  9 14 10  9 10 12 11  9  8  6
++         7 10  8  8  7  6  7  8  8  8 10  7  6  8  7  7  7
++         7  7  6  6  8  7  6  7  7  7  8  7  7  7  8  8  6
++         8  7  7  6  8  7  6  7  7  7  6  6  8  6  6  7  7
++         6  7  7  7 10  7  6  7  8 11  0  0  8  7  7  8  8
++         7  8  9  8  9  9  8  8  7 10  9  9 10  8  8  9  0
%c M  cc GPS ccc cccc cccc cccc cccc ccccc ccccc ccccc ccccc
%c cc cc ccc ccc cccc cccc cccc cccc ccccc ccccc ccccc ccccc
%f  0.0000000  0.000000000  0.00000000000  0.000000000000000
%f  0.0000000  0.000000000  0.00000000000  0.000000000000000
%i    0    0    0    0      0      0      0      0         0
%i    0    0    0    0      0      0      0      0         0
/* IAC                                ULTRA-RAPID PREDICTION
/* S/V CLOCKS ARE ALIGNED TO GNSS TIME                      
/* G:C1WC2W R:C1PC2P E:C1XC5X C:C2IC6I J:C1CC2S             
/* PCV:IGS20_2290 OL/AL:FES2004  NONE     YN ORB:CoN CLK:CoN
*  2024 03 08  1  0  0.00000000
PC06 -14777.478550  25063.030121  30472.891972    257.984768
PC07 -11337.729476  40539.465000   3963.915552   -919.987516
PC08    488.740951  26725.845263 -32534.554564    -19.204392
PC09  -6003.645289  25052.717731  33726.913946   -590.176061
PC10  -5668.715180  41990.130622  -2502.628815     54.602899
PC11 -23943.828583   2224.224930  14230.445280    448.364002
PC12  -9999.507060 -12065.226103  23127.788583   -208.379285
PC13   7750.668186  30986.642961 -27199.451191    423.230298
PC14 -15528.815739  -4092.391193 -22797.743999    355.141771
PC16 -18591.864892  24243.051279  29185.858045   -383.027923
PC19  15084.754958  -7019.703129  22428.594492   -920.849602
PC20  13916.787392  12975.019688  20441.794567   -234.688700
PC21  -4119.206503 -26966.147251  -5794.231219   -961.394166
PC22   7670.389959 -24177.000823  11606.454033    -82.986108
PC23 -10245.571987  12904.710139  22518.784204   -777.251554
PC24 -23520.016693 -14912.605076  -2000.497333    951.398724
PC25 -23658.211436   -528.257875  14791.579099    344.034227
PC26 -10403.623320 -19494.173063 -17084.377260   -259.595714
PC27   1172.512601  17122.437734 -22021.939705    281.536582
PC28 -15600.532313  19318.678992 -12727.024600    214.582265
PC29  25057.514285 -10391.117756  -6570.502383    251.591872
PC30  18133.008329   5569.722786 -20485.217588    -34.958265
PC32   4319.289866  26976.221033   5755.665881   -579.233968
PC33 -15059.229103   7065.297361 -22400.777637   -955.386003
PC34 -19226.376800  -4340.201128  19731.961942    385.263634
PC35  15008.692400 -19918.792752  12547.427499    416.466997
PC36  23785.464722   1381.271045 -14506.998228     10.652062
PC37   9533.522687  19677.413549  17328.753057   -942.373992
PC38  -7599.121709  23307.003862 -34226.672781    141.354246
PC39 -24065.197035  24188.206950  24684.806760     -7.462037
PC40 -17502.526380  37944.830316   6612.054013    -59.758231
PC41  -7998.645368  23757.528909 -12219.783133   -901.855603
PC42 -13453.268638 -14586.062471 -19560.619046   -448.547419
PC43 -25099.840312   9658.630267   7386.498950     63.272910
PC44  -1662.636513 -17276.260375  21843.541016    406.555969
PC45  10057.619667 -12880.792195 -22627.528568    -74.396788
PC46  23821.926526  14450.486315   1110.976072   -129.801947
PE02  14448.418696  -8677.430055 -24345.811126    109.377540
PE03  20768.681380 -18081.297171  10845.800951    -98.748534
PE04 -10569.007514  26485.992995   7949.196071   -344.418243
PE05  18659.214792    739.069159  22974.017775   4726.961927
PE07  -5295.323659 -19541.674652 -21580.892864   -107.679222
PE08  11146.585629 -26430.419562  -7280.480740   -235.377873
PE09   5097.031525  19570.624934  21625.286572   -362.408477
PE10   4278.350256  15989.298595 -24544.132475   -607.578549
PE11  15956.637192  14152.251612 -20542.524625   3192.080680
PE12  -6756.715816  15392.293383 -24361.142770   -938.520178
PE13 -15271.238599 -14271.238291  20958.329900    -20.447663
PE14 -21004.659210  21680.416242   5596.779080     60.121014
PE15   7417.977969 -15215.476996  24291.774839    -89.947985
PE18  20292.158509 -10535.707942 -12083.234958    409.990674
PE19 -21180.585474  16298.280870 -12710.654632   -475.323254
PE21 -20080.696377 -11595.007234  18391.758187   -582.782771
PE24  13934.654524  26076.498774  -1136.683232   -638.748257
PE25  20083.937972  11971.455347 -18150.604689      1.828708
PE26 -28828.647619  -4668.514157   4807.533058    389.968120
PE27 -14207.597202 -25934.479174   1451.122939   -293.087179
PE30    247.832414 -24741.035373 -16277.522462    -71.883886
PE31     28.261068  24808.099914  16139.734605    -17.721629
PE33 -25735.478574   6913.681893 -12878.079201      8.686730
PE34  25401.729021  -7276.208661  13339.986233    -98.718684
PE36  28675.481138   4999.313914  -5423.050117   -196.116426
PG01  17733.501960  11757.340208 -16458.452095    172.832352
PG02   9187.210039  13622.962937 -20437.404652   -473.897380
PG03  12079.499003  23723.892142   -692.518394    238.583488
PG04   3432.935529  18343.162713  18862.495041    309.521536
PG05  -3575.046856 -22922.099043  12674.425652   -164.557734
PG06  23458.673819  -6165.479145  11017.993759    377.384983
PG07  24971.492326   6424.954250   7821.769131    -79.112918
PG08  -2686.865171  22898.431161 -12896.820854     38.589778
PG09  14086.281812   6029.813895  21618.312221    116.902910
PG10 -15665.200278    804.476160 -21279.887254      0.493895
PG11  13632.045132 -12230.972246  19242.702919   -599.665111
PG12  -9876.730627 -24660.940149  -1555.193156   -485.047873
PG13  12461.108698 -22314.024372  -6985.578271    632.151079
PG14  17511.983841   3134.923208 -19754.600288    344.765162
PG15   -366.329625 -23344.694064 -12960.448340    135.310259
PG16  -3487.251559  20370.795969  16084.569645   -346.292344
PG17  19104.698189  -7186.549153 -16656.291795    714.497657
PG18 -25338.166458  -5505.543124   6204.374540   -571.011042
PG19  19881.925494 -14215.583203 -10113.727750    450.849356
PG20   5968.552351 -15971.356884  20465.676190    384.762596
PG21   3922.619791  14692.973828 -21369.149244    132.218660
PG22  13978.490187  -5452.376103 -21488.184981     19.489010
PG23 -18479.758931 -11560.243759 -15284.513953    172.104546
PG24  -6984.423200 -15195.912925 -21112.016671   -443.051511
PG25 -16795.477794 -19224.418790   7472.970599    490.694805
PG26 -11144.568136  11538.314062  20980.396515    182.128729
PG27 -12310.381177  23175.489508  -2332.986841    -10.067031
PG28 -24622.121535   5692.091739   8144.546706   -156.412473
PG29 -12067.406430  -8798.047818  21911.980024   -605.383160
PG30  26486.296628  -1304.810980  -3038.934161   -422.819499
PG31 -18624.308940  10281.465977  15936.338666   -227.947253
PG32 -18811.019272  10741.220575 -15023.040417   -614.988290
PJ02 -26736.456819  23528.737044  27666.168541     -2.685567
PJ03 -34493.454766  17983.673724 -11637.004817     -0.212644
PJ04      0.000000      0.000000      0.000000     50.730646
PR01  -5157.380052  24778.825945  -3229.427394     79.093883
PR02   2663.453024  21244.406678  13864.998736    -22.556589
PR03   9901.749129   5721.406160  22848.163027     95.944140
PR04  11339.242597 -12395.584616  19235.006098    226.594118
PR05   6960.460993 -23983.176113   5276.359745    128.066590
PR07 -10055.824959  -4890.148517 -22883.520664     77.455091
PR08 -11267.477729  12710.547633 -18951.080494    -74.667781
PR09 -15027.966350 -18003.505436  -9922.307218    174.080070
PR11 -16091.099888   -980.882256  19767.804316     31.998318
PR12   -366.205746  13256.823154  21804.339584     37.546072
PR13  13216.137390  18125.701312  12118.946208    -45.080971
PR14  21016.204518  12554.890694  -7194.585501     26.193081
PR15  15239.978123   -177.804340 -20442.847697     81.552020
PR16    473.627473 -12977.443142 -21945.658149     23.827647
PR17  20767.546751   -298.165567 -14778.152428     67.126951
PR18  23972.568204  -8759.018226    934.039674    131.017894
PR19  16642.566393 -12212.777028  14987.600652   -268.538448
PR20  -4512.559930  -9443.606287  23268.327918   -109.445663
PR21 -20877.097498    288.469929  14666.365585    -82.774588
PR22 -23941.556072   8544.099566  -1968.281696    111.668779
PR24   5702.318634   9444.405016 -22981.874913    -46.892489
EOF
